{
  "type": "FeatureCollection",
  "features": [
    {
      "type": "Feature",
      "properties": {
        "norad_id": 66808,
        "name": "STARLINK-36071",
        "group": "last-30-days",
        "lat": -36.88268523769424,
        "lon": 68.65919576126007,
        "alt_km": 403.85787903984783,
        "timestamp": "2025-12-22T04:03:37.887768+00:00",
        "meta_object_name": "STARLINK-36071",
        "meta_object_id": "2025-278T",
        "meta_epoch": "2025-12-21T20:00:01.999008",
        "meta_mean_motion": 15.56608227,
        "meta_eccentricity": 0.0001308,
        "meta_inclination": 42.9993,
        "meta_ra_of_asc_node": 197.0054,
        "meta_arg_of_pericenter": 270.3365,
        "meta_mean_anomaly": 248.0287,
        "meta_ephemeris_type": 0,
        "meta_classification_type": "U",
        "meta_norad_cat_id": 66808,
        "meta_element_set_no": 999,
        "meta_rev_at_epoch": 442,
        "meta_bstar": -0.031277,
        "meta_mean_motion_dot": -0.02040982,
        "meta_mean_motion_ddot": 0,
        "tle_line1": "1 66808U 25278T   25355.83335647 -.02040982  00000+0 -31277-1 0  9998",
        "tle_line2": "2 66808  42.9993 197.0054 0001308 270.3365 248.0287 15.56608227  4423"
      },
      "geometry": {
        "type": "Point",
        "coordinates": [
          68.65919576126007,
          -36.88268523769424
        ]
      }
    },
    {
      "type": "Feature",
      "properties": {
        "norad_id": 66809,
        "name": "STARLINK-35979",
        "group": "last-30-days",
        "lat": -39.01589108151766,
        "lon": 75.41509226464717,
        "alt_km": 403.91072564876777,
        "timestamp": "2025-12-22T04:03:37.887778+00:00",
        "meta_object_name": "STARLINK-35979",
        "meta_object_id": "2025-278U",
        "meta_epoch": "2025-12-21T20:00:01.999008",
        "meta_mean_motion": 15.56615915,
        "meta_eccentricity": 0.000125,
        "meta_inclination": 42.9986,
        "meta_ra_of_asc_node": 196.9896,
        "meta_arg_of_pericenter": 265.3349,
        "meta_mean_anomaly": 258.7792,
        "meta_ephemeris_type": 0,
        "meta_classification_type": "U",
        "meta_norad_cat_id": 66809,
        "meta_element_set_no": 999,
        "meta_rev_at_epoch": 442,
        "meta_bstar": -0.031458,
        "meta_mean_motion_dot": -0.02052008,
        "meta_mean_motion_ddot": 0,
        "tle_line1": "1 66809U 25278U   25355.83335647 -.02052008  00000+0 -31458-1 0  9992",
        "tle_line2": "2 66809  42.9986 196.9896 0001250 265.3349 258.7792 15.56615915  4421"
      },
      "geometry": {
        "type": "Point",
        "coordinates": [
          75.41509226464717,
          -39.01589108151766
        ]
      }
    },
    {
      "type": "Feature",
      "properties": {
        "norad_id": 66810,
        "name": "STARLINK-36046",
        "group": "last-30-days",
        "lat": -37.635126195031546,
        "lon": 70.86379141362245,
        "alt_km": 403.9373934367177,
        "timestamp": "2025-12-22T04:03:37.887789+00:00",
        "meta_object_name": "STARLINK-36046",
        "meta_object_id": "2025-278V",
        "meta_epoch": "2025-12-21T20:00:01.999008",
        "meta_mean_motion": 15.56615745,
        "meta_eccentricity": 0.0001205,
        "meta_inclination": 42.9989,
        "meta_ra_of_asc_node": 197.0006,
        "meta_arg_of_pericenter": 272.1278,
        "meta_mean_anomaly": 248.1437,
        "meta_ephemeris_type": 0,
        "meta_classification_type": "U",
        "meta_norad_cat_id": 66810,
        "meta_element_set_no": 999,
        "meta_rev_at_epoch": 419,
        "meta_bstar": -0.031295,
        "meta_mean_motion_dot": -0.02042503,
        "meta_mean_motion_ddot": 0,
        "tle_line1": "1 66810U 25278V   25355.83335647 -.02042503  00000+0 -31295-1 0  9992",
        "tle_line2": "2 66810  42.9989 197.0006 0001205 272.1278 248.1437 15.56615745  4192"
      },
      "geometry": {
        "type": "Point",
        "coordinates": [
          70.86379141362245,
          -37.635126195031546
        ]
      }
    },
    {
      "type": "Feature",
      "properties": {
        "norad_id": 66811,
        "name": "STARLINK-36045",
        "group": "last-30-days",
        "lat": -38.34772065592733,
        "lon": 73.11800857659372,
        "alt_km": 403.8590947939383,
        "timestamp": "2025-12-22T04:03:37.887800+00:00",
        "meta_object_name": "STARLINK-36045",
        "meta_object_id": "2025-278W",
        "meta_epoch": "2025-12-21T20:00:01.999008",
        "meta_mean_motion": 15.56607536,
        "meta_eccentricity": 0.0001299,
        "meta_inclination": 42.9989,
        "meta_ra_of_asc_node": 196.9955,
        "meta_arg_of_pericenter": 265.5895,
        "meta_mean_anomaly": 256.6088,
        "meta_ephemeris_type": 0,
        "meta_classification_type": "U",
        "meta_norad_cat_id": 66811,
        "meta_element_set_no": 999,
        "meta_rev_at_epoch": 442,
        "meta_bstar": -0.03125,
        "meta_mean_motion_dot": -0.02039385,
        "meta_mean_motion_ddot": 0,
        "tle_line1": "1 66811U 25278W   25355.83335647 -.02039385  00000+0 -31250-1 0  9998",
        "tle_line2": "2 66811  42.9989 196.9955 0001299 265.5895 256.6088 15.56607536  4429"
      },
      "geometry": {
        "type": "Point",
        "coordinates": [
          73.11800857659372,
          -38.34772065592733
        ]
      }
    },
    {
      "type": "Feature",
      "properties": {
        "norad_id": 66812,
        "name": "STARLINK-36054",
        "group": "last-30-days",
        "lat": -39.63664845074393,
        "lon": 77.75103402592725,
        "alt_km": 404.0157210628877,
        "timestamp": "2025-12-22T04:03:37.887810+00:00",
        "meta_object_name": "STARLINK-36054",
        "meta_object_id": "2025-278X",
        "meta_epoch": "2025-12-21T20:00:01.999008",
        "meta_mean_motion": 15.56614569,
        "meta_eccentricity": 0.0001142,
        "meta_inclination": 42.9985,
        "meta_ra_of_asc_node": 196.986,
        "meta_arg_of_pericenter": 268.7834,
        "meta_mean_anomaly": 257.2467,
        "meta_ephemeris_type": 0,
        "meta_classification_type": "U",
        "meta_norad_cat_id": 66812,
        "meta_element_set_no": 999,
        "meta_rev_at_epoch": 442,
        "meta_bstar": -0.0314,
        "meta_mean_motion_dot": -0.02048478,
        "meta_mean_motion_ddot": 0,
        "tle_line1": "1 66812U 25278X   25355.83335647 -.02048478  00000+0 -31400-1 0  9999",
        "tle_line2": "2 66812  42.9985 196.9860 0001142 268.7834 257.2467 15.56614569  4428"
      },
      "geometry": {
        "type": "Point",
        "coordinates": [
          77.75103402592725,
          -39.63664845074393
        ]
      }
    },
    {
      "type": "Feature",
      "properties": {
        "norad_id": 66813,
        "name": "STARLINK-36042",
        "group": "last-30-days",
        "lat": -40.21028844455214,
        "lon": 80.1272204942308,
        "alt_km": 404.1114845689135,
        "timestamp": "2025-12-22T04:03:37.887820+00:00",
        "meta_object_name": "STARLINK-36042",
        "meta_object_id": "2025-278Y",
        "meta_epoch": "2025-12-21T20:00:01.999008",
        "meta_mean_motion": 15.56611309,
        "meta_eccentricity": 0.0001052,
        "meta_inclination": 42.9987,
        "meta_ra_of_asc_node": 196.9804,
        "meta_arg_of_pericenter": 272.4436,
        "meta_mean_anomaly": 255.5059,
        "meta_ephemeris_type": 0,
        "meta_classification_type": "U",
        "meta_norad_cat_id": 66813,
        "meta_element_set_no": 999,
        "meta_rev_at_epoch": 442,
        "meta_bstar": -0.031331,
        "meta_mean_motion_dot": -0.02044183,
        "meta_mean_motion_ddot": 0,
        "tle_line1": "1 66813U 25278Y   25355.83335647 -.02044183  00000+0 -31331-1 0  9992",
        "tle_line2": "2 66813  42.9987 196.9804 0001052 272.4436 255.5059 15.56611309  4426"
      },
      "geometry": {
        "type": "Point",
        "coordinates": [
          80.1272204942308,
          -40.21028844455214
        ]
      }
    },
    {
      "type": "Feature",
      "properties": {
        "norad_id": 66814,
        "name": "STARLINK-35984",
        "group": "last-30-days",
        "lat": -42.553534389340236,
        "lon": 95.10798481206793,
        "alt_km": 403.99323088783876,
        "timestamp": "2025-12-22T04:03:37.887832+00:00",
        "meta_object_name": "STARLINK-35984",
        "meta_object_id": "2025-278Z",
        "meta_epoch": "2025-12-21T20:00:01.999008",
        "meta_mean_motion": 15.5660742,
        "meta_eccentricity": 0.0001272,
        "meta_inclination": 42.9993,
        "meta_ra_of_asc_node": 196.9511,
        "meta_arg_of_pericenter": 265.2746,
        "meta_mean_anomaly": 274.1767,
        "meta_ephemeris_type": 0,
        "meta_classification_type": "U",
        "meta_norad_cat_id": 66814,
        "meta_element_set_no": 999,
        "meta_rev_at_epoch": 450,
        "meta_bstar": -0.03122,
        "meta_mean_motion_dot": -0.02037556,
        "meta_mean_motion_ddot": 0,
        "tle_line1": "1 66814U 25278Z   25355.83335647 -.02037556  00000+0 -31220-1 0  9996",
        "tle_line2": "2 66814  42.9993 196.9511 0001272 265.2746 274.1767 15.56607420  4508"
      },
      "geometry": {
        "type": "Point",
        "coordinates": [
          95.10798481206793,
          -42.553534389340236
        ]
      }
    }
  ]
}